0 SL-16 DEB
1 28436U 01056K   13282.24726806 -.00000094  00000-0 -10916-3 0  4121
2 28436 099.4905 197.2935 0192182 173.5166 343.7546 13.28532456573252
0 SL-16 DEB
1 28436U 01056K   13284.20611082 -.00000088  00000-0 -96427-4 0  4134
2 28436 099.4905 199.0926 0192240 168.7993 352.3447 13.28532259573517
0 SL-16 DEB
1 28436U 01056K   13285.25899275 -.00000079  00000-0 -80217-4 0  4143
2 28436 099.4906 200.0596 0192269 166.2646 347.9793 13.28532112573650
0 SL-16 DEB
1 28436U 01056K   13286.73916142 -.00000074  00000-0 -69768-4 0  4154
2 28436 099.4907 201.4189 0192316 162.7022 227.2036 13.28531838573841
0 SL-16 DEB
1 28436U 01056K   13288.02759413 -.00000073  00000-0 -67835-4 0  4167
2 28436 099.4908 202.6022 0192358 159.5966 269.4121 13.28531597574024
0 SL-16 DEB
1 28436U 01056K   13289.68468574 -.00000064  00000-0 -51023-4 0  4178
2 28436 099.4909 204.1241 0192411 155.6093 274.8042 13.28531564574243
0 SL-16 DEB
1 28436U 01056K   13290.73615580 -.00000068  00000-0 -58156-4 0  4186
2 28436 099.4909 205.0898 0192444 153.0846 263.6765 13.28531443574384
0 SL-16 DEB
1 28436U 01056K   13291.79369962 -.00000076  00000-0 -73314-4 0  4196
2 28436 099.4910 206.0610 0192463 150.5451 281.5966 13.28531470574522
0 SL-16 DEB
1 28436U 01056K   13292.99698097 -.00000079  00000-0 -79623-4 0  4207
2 28436 099.4911 207.1661 0192507 147.6462 276.5465 13.28531315574682
0 SL-16 DEB
1 28436U 01056K   13294.72195271 -.00000087  00000-0 -95553-4 0  4216
2 28436 099.4912 208.7502 0192546 143.5029 246.5785 13.28531165574912
0 SL-16 DEB
1 28436U 01056K   13295.78490883 -.00000096  00000-0 -11326-3 0  4226
2 28436 099.4912 209.7265 0192576 140.9474 290.3859 13.28531114575056
